STARLINK-35808          
1 68052U 26041N   26073.50002315  .00053137  00000+0  27085-3 0  9991
2 68052  53.1587  37.9296 0001142  65.6934 179.7753 15.80893434  3118
STARLINK-36919          
1 68053U 26041P   26073.50002315 -.00009233  00000+0 -43216-4 0  9997
2 68053  53.1589  37.9206 0001081  83.0855 166.6541 15.80907210  3152
STARLINK-36924          
1 68054U 26041Q   26073.50002315 -.01597306  00000+0 -90501-2 0  9999
2 68054  53.1587  37.9039 0000905 107.5003 150.7210 15.81352409  3158
STARLINK-35998          
1 68055U 26041R   26073.50002315 -.00286799  00000+0 -14858-2 0  9991
2 68055  53.1589  37.9122 0001217  88.4094 165.5291 15.81050977  3112
STARLINK-36845          
1 68056U 26041S   26073.50002315 -.00193125  00000+0 -99202-3 0  9999
2 68056  53.1590  37.8945 0000464 119.3520 143.1838 15.80981144  3159
STARLINK-36954          
1 68057U 26041T   26073.50002315 -.02017409  00000+0 -12143-1 0  9999
2 68057  53.1590  37.8859 0001151  83.4565 183.1840 15.80291633  3152
STARLINK-36899          
1 68058U 26041U   26073.50002315 -.00227431  00000+0 -11727-2 0  9994
2 68058  53.1591  37.8768 0000751  48.7871 222.2953 15.80995524  3152
STARLINK-36917          
1 68059U 26041V   26073.50002315 -.00153555  00000+0 -78470-3 0  9999
2 68059  53.1591  37.8682 0000887  91.9076 183.4457 15.80972834  3151
STARLINK-36959          
1 68060U 26041W   26073.50002315 -.00189340  00000+0 -97150-3 0  9998
2 68060  53.1587  37.8586 0001406  74.0284 205.5895 15.80990944  3156
STARLINK-36915          
1 68061U 26041X   26073.50002315 -.00126343  00000+0 -64291-3 0  9993
2 68061  53.1590  37.8495 0000904  86.3812 197.4690 15.80975717  3158
STARLINK-36952          
1 68062U 26041Y   26073.50002315 -.02036105  00000+0 -11761-1 0  9994
2 68062  53.1589  37.8414 0000654  86.8716 201.2780 15.81213653  3157
STARLINK-37000          
1 68063U 26041Z   26073.50002315 -.00223330  00000+0 -11510-2 0  9994
2 68063  53.1590  37.8322 0001032  82.3418 210.0907 15.80992157  3150
STARLINK-36996          
1 68064U 26041AA  26073.50002315 -.00183921  00000+0 -94383-3 0  9996
2 68064  53.1593  37.8233 0000483  85.6186 211.0866 15.80975018  3154
STARLINK-36836          
1 68065U 26041AB  26073.50002315 -.00085658  00000+0 -43384-3 0  9990
2 68065  53.1592  37.8054 0001123  82.0844 223.1670 15.80918145  3154
STARLINK-36976          
1 68066U 26041AC  26073.50002315 -.00152514  00000+0 -78048-3 0  9992
2 68066  53.1591  37.7966 0000838  62.1300 247.3834 15.80939413  3154
STARLINK-36929          
1 68067U 26041AD  26073.50002315 -.00092955  00000+0 -47125-3 0  9997
2 68067  53.1592  37.8140 0001095  79.9640 221.0121 15.80929409  3152
