[{"OBJECT_NAME":"STARLINK-35808","OBJECT_ID":"2026-041N","EPOCH":"2026-03-14T12:00:02.000160","MEAN_MOTION":15.80893434,"ECCENTRICITY":0.00011426,"INCLINATION":53.1587,"RA_OF_ASC_NODE":37.9296,"ARG_OF_PERICENTER":65.6934,"MEAN_ANOMALY":179.7753,"EPHEMERIS_TYPE":0,"CLASSIFICATION_TYPE":"U","NORAD_CAT_ID":68052,"ELEMENT_SET_NO":999,"REV_AT_EPOCH":311,"BSTAR":0.00027084713,"MEAN_MOTION_DOT":0.00053137,"MEAN_MOTION_DDOT":0},{"OBJECT_NAME":"STARLINK-36919","OBJECT_ID":"2026-041P","EPOCH":"2026-03-14T12:00:02.000160","MEAN_MOTION":15.8090721,"ECCENTRICITY":0.00010816,"INCLINATION":53.1589,"RA_OF_ASC_NODE":37.9206,"ARG_OF_PERICENTER":83.0855,"MEAN_ANOMALY":166.6541,"EPHEMERIS_TYPE":0,"CLASSIFICATION_TYPE":"U","NORAD_CAT_ID":68053,"ELEMENT_SET_NO":999,"REV_AT_EPOCH":315,"BSTAR":-4.3216472e-5,"MEAN_MOTION_DOT":-9.233e-5,"MEAN_MOTION_DDOT":0},{"OBJECT_NAME":"STARLINK-36924","OBJECT_ID":"2026-041Q","EPOCH":"2026-03-14T12:00:02.000160","MEAN_MOTION":15.81352409,"ECCENTRICITY":9.051e-5,"INCLINATION":53.1587,"RA_OF_ASC_NODE":37.9039,"ARG_OF_PERICENTER":107.5003,"MEAN_ANOMALY":150.721,"EPHEMERIS_TYPE":0,"CLASSIFICATION_TYPE":"U","NORAD_CAT_ID":68054,"ELEMENT_SET_NO":999,"REV_AT_EPOCH":315,"BSTAR":-0.0090500787,"MEAN_MOTION_DOT":-0.01597306,"MEAN_MOTION_DDOT":0},{"OBJECT_NAME":"STARLINK-35998","OBJECT_ID":"2026-041R","EPOCH":"2026-03-14T12:00:02.000160","MEAN_MOTION":15.81050977,"ECCENTRICITY":0.00012171,"INCLINATION":53.1589,"RA_OF_ASC_NODE":37.9122,"ARG_OF_PERICENTER":88.4094,"MEAN_ANOMALY":165.5291,"EPHEMERIS_TYPE":0,"CLASSIFICATION_TYPE":"U","NORAD_CAT_ID":68055,"ELEMENT_SET_NO":999,"REV_AT_EPOCH":311,"BSTAR":-0.0014858454,"MEAN_MOTION_DOT":-0.00286799,"MEAN_MOTION_DDOT":0},{"OBJECT_NAME":"STARLINK-36845","OBJECT_ID":"2026-041S","EPOCH":"2026-03-14T12:00:02.000160","MEAN_MOTION":15.80981144,"ECCENTRICITY":4.641e-5,"INCLINATION":53.159,"RA_OF_ASC_NODE":37.8945,"ARG_OF_PERICENTER":119.352,"MEAN_ANOMALY":143.1838,"EPHEMERIS_TYPE":0,"CLASSIFICATION_TYPE":"U","NORAD_CAT_ID":68056,"ELEMENT_SET_NO":999,"REV_AT_EPOCH":315,"BSTAR":-0.00099201641,"MEAN_MOTION_DOT":-0.00193125,"MEAN_MOTION_DDOT":0},{"OBJECT_NAME":"STARLINK-36954","OBJECT_ID":"2026-041T","EPOCH":"2026-03-14T12:00:02.000160","MEAN_MOTION":15.80291633,"ECCENTRICITY":0.00011517,"INCLINATION":53.159,"RA_OF_ASC_NODE":37.8859,"ARG_OF_PERICENTER":83.4565,"MEAN_ANOMALY":183.184,"EPHEMERIS_TYPE":0,"CLASSIFICATION_TYPE":"U","NORAD_CAT_ID":68057,"ELEMENT_SET_NO":999,"REV_AT_EPOCH":315,"BSTAR":-0.012143309,"MEAN_MOTION_DOT":-0.02017409,"MEAN_MOTION_DDOT":0},{"OBJECT_NAME":"STARLINK-36899","OBJECT_ID":"2026-041U","EPOCH":"2026-03-14T12:00:02.000160","MEAN_MOTION":15.80995524,"ECCENTRICITY":7.514e-5,"INCLINATION":53.1591,"RA_OF_ASC_NODE":37.8768,"ARG_OF_PERICENTER":48.7871,"MEAN_ANOMALY":222.2953,"EPHEMERIS_TYPE":0,"CLASSIFICATION_TYPE":"U","NORAD_CAT_ID":68058,"ELEMENT_SET_NO":999,"REV_AT_EPOCH":315,"BSTAR":-0.0011726535,"MEAN_MOTION_DOT":-0.00227431,"MEAN_MOTION_DDOT":0},{"OBJECT_NAME":"STARLINK-36917","OBJECT_ID":"2026-041V","EPOCH":"2026-03-14T12:00:02.000160","MEAN_MOTION":15.80972834,"ECCENTRICITY":8.875e-5,"INCLINATION":53.1591,"RA_OF_ASC_NODE":37.8682,"ARG_OF_PERICENTER":91.9076,"MEAN_ANOMALY":183.4457,"EPHEMERIS_TYPE":0,"CLASSIFICATION_TYPE":"U","NORAD_CAT_ID":68059,"ELEMENT_SET_NO":999,"REV_AT_EPOCH":315,"BSTAR":-0.00078470336,"MEAN_MOTION_DOT":-0.00153555,"MEAN_MOTION_DDOT":0},{"OBJECT_NAME":"STARLINK-36959","OBJECT_ID":"2026-041W","EPOCH":"2026-03-14T12:00:02.000160","MEAN_MOTION":15.80990944,"ECCENTRICITY":0.00014063,"INCLINATION":53.1587,"RA_OF_ASC_NODE":37.8586,"ARG_OF_PERICENTER":74.0284,"MEAN_ANOMALY":205.5895,"EPHEMERIS_TYPE":0,"CLASSIFICATION_TYPE":"U","NORAD_CAT_ID":68060,"ELEMENT_SET_NO":999,"REV_AT_EPOCH":315,"BSTAR":-0.00097149565,"MEAN_MOTION_DOT":-0.0018934,"MEAN_MOTION_DDOT":0},{"OBJECT_NAME":"STARLINK-36915","OBJECT_ID":"2026-041X","EPOCH":"2026-03-14T12:00:02.000160","MEAN_MOTION":15.80975717,"ECCENTRICITY":9.046e-5,"INCLINATION":53.159,"RA_OF_ASC_NODE":37.8495,"ARG_OF_PERICENTER":86.3812,"MEAN_ANOMALY":197.469,"EPHEMERIS_TYPE":0,"CLASSIFICATION_TYPE":"U","NORAD_CAT_ID":68061,"ELEMENT_SET_NO":999,"REV_AT_EPOCH":315,"BSTAR":-0.00064290817,"MEAN_MOTION_DOT":-0.00126343,"MEAN_MOTION_DDOT":0},{"OBJECT_NAME":"STARLINK-36952","OBJECT_ID":"2026-041Y","EPOCH":"2026-03-14T12:00:02.000160","MEAN_MOTION":15.81213653,"ECCENTRICITY":6.545e-5,"INCLINATION":53.1589,"RA_OF_ASC_NODE":37.8414,"ARG_OF_PERICENTER":86.8716,"MEAN_ANOMALY":201.278,"EPHEMERIS_TYPE":0,"CLASSIFICATION_TYPE":"U","NORAD_CAT_ID":68062,"ELEMENT_SET_NO":999,"REV_AT_EPOCH":315,"BSTAR":-0.011760642,"MEAN_MOTION_DOT":-0.02036105,"MEAN_MOTION_DDOT":0},{"OBJECT_NAME":"STARLINK-37000","OBJECT_ID":"2026-041Z","EPOCH":"2026-03-14T12:00:02.000160","MEAN_MOTION":15.80992157,"ECCENTRICITY":0.00010324,"INCLINATION":53.159,"RA_OF_ASC_NODE":37.8322,"ARG_OF_PERICENTER":82.3418,"MEAN_ANOMALY":210.0907,"EPHEMERIS_TYPE":0,"CLASSIFICATION_TYPE":"U","NORAD_CAT_ID":68063,"ELEMENT_SET_NO":999,"REV_AT_EPOCH":315,"BSTAR":-0.0011510318,"MEAN_MOTION_DOT":-0.0022333,"MEAN_MOTION_DDOT":0},{"OBJECT_NAME":"STARLINK-36996","OBJECT_ID":"2026-041AA","EPOCH":"2026-03-14T12:00:02.000160","MEAN_MOTION":15.80975018,"ECCENTRICITY":4.839e-5,"INCLINATION":53.1593,"RA_OF_ASC_NODE":37.8233,"ARG_OF_PERICENTER":85.6186,"MEAN_ANOMALY":211.0866,"EPHEMERIS_TYPE":0,"CLASSIFICATION_TYPE":"U","NORAD_CAT_ID":68064,"ELEMENT_SET_NO":999,"REV_AT_EPOCH":315,"BSTAR":-0.00094383421,"MEAN_MOTION_DOT":-0.00183921,"MEAN_MOTION_DDOT":0},{"OBJECT_NAME":"STARLINK-36836","OBJECT_ID":"2026-041AB","EPOCH":"2026-03-14T12:00:02.000160","MEAN_MOTION":15.80918145,"ECCENTRICITY":0.00011238,"INCLINATION":53.1592,"RA_OF_ASC_NODE":37.8054,"ARG_OF_PERICENTER":82.0844,"MEAN_ANOMALY":223.167,"EPHEMERIS_TYPE":0,"CLASSIFICATION_TYPE":"U","NORAD_CAT_ID":68065,"ELEMENT_SET_NO":999,"REV_AT_EPOCH":315,"BSTAR":-0.00043383649,"MEAN_MOTION_DOT":-0.00085658,"MEAN_MOTION_DDOT":0},{"OBJECT_NAME":"STARLINK-36976","OBJECT_ID":"2026-041AC","EPOCH":"2026-03-14T12:00:02.000160","MEAN_MOTION":15.80939413,"ECCENTRICITY":8.386e-5,"INCLINATION":53.1591,"RA_OF_ASC_NODE":37.7966,"ARG_OF_PERICENTER":62.13,"MEAN_ANOMALY":247.3834,"EPHEMERIS_TYPE":0,"CLASSIFICATION_TYPE":"U","NORAD_CAT_ID":68066,"ELEMENT_SET_NO":999,"REV_AT_EPOCH":315,"BSTAR":-0.00078047746,"MEAN_MOTION_DOT":-0.00152514,"MEAN_MOTION_DDOT":0},{"OBJECT_NAME":"STARLINK-36929","OBJECT_ID":"2026-041AD","EPOCH":"2026-03-14T12:00:02.000160","MEAN_MOTION":15.80929409,"ECCENTRICITY":0.00010959,"INCLINATION":53.1592,"RA_OF_ASC_NODE":37.814,"ARG_OF_PERICENTER":79.964,"MEAN_ANOMALY":221.0121,"EPHEMERIS_TYPE":0,"CLASSIFICATION_TYPE":"U","NORAD_CAT_ID":68067,"ELEMENT_SET_NO":999,"REV_AT_EPOCH":315,"BSTAR":-0.00047124831,"MEAN_MOTION_DOT":-0.00092955,"MEAN_MOTION_DDOT":0}]
